{"type":"FeatureCollection","features":[{"type":"Feature","properties":{"name":"India"},"geometry":{"type":"MultiPolygon","coordinates":[[[[68.09385227206845,23.666810990035643],[68.35839135419347,23.979953983427237],[68.73552929542916,23.971554976507743],[68.74949256340466,23.97680893016196],[68.8081713752156,24.31360630317434],[68.85214274889377,24.23540186172343],[68.86532439952221,24.22712974984838],[68.88198753201516,24.232079308489567],[68.9455432257203,24.302543568284005],[68.99767070572008,24.231017263972472],[69.01306723046318,24.224281943623986],[69.59414448495949,24.29280055111677],[69.73299570032881,24.171862275523587],[70.01462347375107,24.170994525523643],[70.02994305051867,24.178145094519994],[70.11000078849662,24.29476778528337],[70.57308144553633,24.422015107804853],[70.57129413136227,24.26916737355261],[70.57823593373341,24.253780683190417],[70.80107994404649,24.221324792996896],[71.08716390070151,24.386409364903233],[71.09242470812265,24.40234691357771],[71.08369311304382,24.416680119773567],[70.9985025648016,24.444112536032375],[71.00846323453395,24.635534094664067],[71.08104545530423,24.68037303398667],[71.08650422196314,24.701492931951],[71.06497084183127,24.71809793584104],[70.88849673655817,25.147205482630884],[70.66453565181823,25.39707581844062],[70.65677310556384,25.69385800571109],[70.64071838201181,25.702762947784198],[70.2683861826392,25.713802032584187],[70.09954057753392,25.93835086198043],[70.16854189421018,26.54451558406219],[70.15386692589374,26.553569065929505],[69.82227452543009,26.589236558085453],[69.5101127451733,26.74358583076611],[69.58692461931129,27.1835205568517],[70.02352723647341,27.56114651616987],[70.13221741145615,27.805596962897198],[70.37192839978697,28.011768897463856],[70.58915904121014,28.010424397681515],[70.73763948694571,27.745938979881455],[70.87059431676364,27.706271087618692],[71.89413404478849,27.962802193006993],[71.9277583453877,28.121600893202636],[72.20651813210509,28.395226055485317],[72.39218082191131,28.771923390611637],[72.94729499741142,29.031236042408576],[73.28189846233487,29.57126178989176],[73.39700948860204,29.94586181378127],[73.80436331709552,30.067213386841274],[73.96040864086807,30.188691114949446],[73.96484275034726,30.211446799743964],[73.87987662330195,30.359768816709543],[73.93460449266499,30.49013081245614],[74.07394582119848,30.525429226849294],[74.41640628308082,30.940299255442348],[74.66068433068394,31.07228050671551],[74.6632978217284,31.089138912361243],[74.65195393607709,31.101880671842782],[74.5103094210988,31.13202988126462],[74.55166764350032,31.364406514122276],[74.63943736253033,31.41697784768966],[74.64756106301517,31.433697308806906],[74.48823359072074,31.720365933295653],[74.87936119483118,32.05381598225129],[75.25770706571133,32.101614872767314],[75.36749526518832,32.22182157108527],[75.36782181218216,32.2375910972518],[75.32867652202697,32.3281586728494],[75.03578121853377,32.491411095955684],[75.01840727077584,32.49068068895603],[74.95207549859543,32.44625128918084],[74.68058907543374,32.49191710299196],[74.70002100703987,32.77513119371032],[74.68890632268825,32.794442983415635],[74.66682151687806,32.791486163809445],[74.63503410220537,32.750341796366065],[74.3699205658778,32.758707712697294],[73.6271293633621,33.08956269802169],[73.58904696637349,33.88276079388504],[73.39067897797769,34.377138997747444],[73.44699509209232,34.57372500094054],[73.64953848502628,34.572320927836984],[73.74928546828528,34.78663401292819],[74.02972746597825,34.88000578881606],[74.12392888154795,35.08632056706966],[74.12455343916116,35.10122442789294],[74.11113353750416,35.113797295445046],[73.71559266511282,35.22547750363572],[73.77951366589451,35.50513442305227],[73.76959799593861,35.52714823040271],[73.27197952808241,35.62920821342588],[73.13552783451568,35.71861561719045],[73.10271577495584,35.86374730403522],[73.08927744215153,35.876695013647165],[72.59756809540137,35.87275799006512],[72.52939022233387,35.925948177260224],[72.55089023195897,36.180519633800344],[72.98860495584306,36.4561538340554],[73.08468794749326,36.69904395917003],[73.8504589885206,36.701321344712774],[73.86563544959513,36.71499410002931],[73.86217670829626,36.733399836979345],[73.68955607509463,36.91142487312862],[74.05661698657069,36.807449198897054],[74.42898913158241,36.989350629983434],[74.56697712869507,36.955875181170356],[74.57842565603895,36.97137220889603],[74.58091852397828,37.042767572428474],[74.69497624462018,37.07746702616367],[74.92356549605059,36.90789389383496],[75.34275117922473,37.051801063745955],[75.4734652488521,36.81038991265087],[75.76763406391687,36.57334348338473],[76.64361933232996,36.183158359323606],[76.8006022173977,36.047319211029695],[76.73219937023526,35.96560262415021],[76.72762021220271,35.950894302534216],[76.81038367244258,35.845752092701886],[77.3571372797473,35.71720006431384],[77.48525031476366,35.531547176259856],[77.39051003741302,35.53175928661395],[77.37596427687487,35.52328676861143],[77.37763118864879,35.49832527327565],[77.4367426804338,35.46292904421551],[77.7322552298771,35.52404592371164],[77.96138517486416,35.46426862129257],[77.97513526831224,35.48528409578806],[77.95114527995331,35.60646316179617],[78.13235445057792,35.544582964784496],[78.14379222392267,35.55482902418565],[78.19828325839077,35.66866306522165],[78.42180304213392,35.784813178998924],[78.95900857742873,35.89208174499295],[79.12673457756657,35.83956635404613],[79.13957996725463,35.84753627208986],[79.24030158256872,35.986242681834405],[79.3826400985729,35.99377706641663],[79.42621144015565,35.89479201243531],[79.74021214319218,35.801118755095075],[79.9975368978826,35.83726433324159],[80.10700947230949,35.6811677274442],[80.28981862063799,35.60696291877901],[80.32695149043414,35.472149850018695],[80.06739470809643,34.714423595441616],[79.78355241809733,34.62830259960686],[79.77631213053405,34.61237878544369],[79.79241657961951,34.48471723954213],[79.53367857625459,34.47492515404735],[79.51981397210079,34.468587773240756],[79.51547488283046,34.44856897467457],[79.58415603671654,34.24410729053323],[79.42502771762688,34.01713108420726],[79.16979304873772,34.07167199755293],[78.92546636760227,33.97986577801896],[78.91318024011403,33.966107125138635],[78.91517640896298,33.951276746092304],[79.1055389491818,33.61660672591734],[78.93831094425292,33.63005543787985],[78.92167093920439,33.620565451531014],[78.95343668735141,33.38283622960739],[79.09684542691384,33.294540157169436],[79.45186199966234,33.26010179043878],[79.3369689690174,33.025137273830204],[79.33601697733702,33.00986195350654],[79.62531203526245,32.73731079421674],[79.44659416343187,32.532334097075115],[79.33020915300641,32.58732112182152],[79.31476611391453,32.58801288456689],[78.98394533551125,32.337852665774584],[78.82579716327047,32.438503920471184],[78.77259358489667,32.67454186819109],[78.76063189374669,32.6869721802002],[78.74520036036795,32.68639083774125],[78.41900617829147,32.531626017634665],[78.4218713697605,32.506824882457956],[78.53473206450239,32.414386858775664],[78.46574423947014,32.265714414420266],[78.46499080231031,32.250735018320874],[78.47843820751147,32.2380492833988],[78.60851766263225,32.21429822501376],[78.61628495565475,32.11609710591493],[78.7810811849809,31.993485347564842],[78.70793979190647,31.779380752145258],[78.84690075617242,31.608041295357612],[78.7326241507786,31.511085518147016],[78.73800758733256,31.492896368948404],[78.79771704351931,31.443443309227632],[78.77319220437762,31.340347994159306],[78.78139685787917,31.32135469030247],[78.88412337625331,31.290613453512904],[79.0716296914244,31.456101587910585],[79.13897311955873,31.43360792201487],[79.42911470328602,31.02273768072233],[79.6000652421666,30.93562834160763],[79.75319916184512,31.006393432630826],[79.86480393598228,30.97269473556901],[80.23592606389626,30.75928109682922],[80.21447473605444,30.597446193391505],[80.22329596461476,30.580224109424858],[81.03208775152639,30.246798682166126],[80.99518300045153,30.18647642529077],[80.91981571432653,30.217444529489658],[80.90242066511927,30.21451636338921],[80.74393865353223,30.004504345910888],[80.37442616319723,29.75122651291848],[80.3717334698475,29.73480006120309],[80.40921262771593,29.59753848551456],[80.24449253715876,29.43901247055712],[80.29786398194015,29.20522069357024],[80.14507930634552,29.101031357371227],[80.06944051053095,28.85127510512237],[80.07340853356204,28.832534704130044],[80.49841979122363,28.563626954953374],[80.51180863410642,28.563271196078357],[80.52339601972972,28.573132184601093],[80.56916623415451,28.688091362211143],[81.21021178568014,28.360929167421965],[81.31500219921612,28.14309797573488],[81.33157708126441,28.139571215497835],[81.4256120196352,28.17113274808659],[81.87950384121822,27.86084496650653],[81.89425103121567,27.860348973058315],[82.06994534142272,27.923301650470894],[82.44774094764512,27.68153114040595],[82.70840994051403,27.72297894254313],[82.73314592485086,27.518453022198184],[82.74530519272007,27.50239218352934],[83.18833410768684,27.453897502564665],[83.29754814658314,27.34967767980009],[83.31203112057318,27.344156141251638],[83.32848777512413,27.353822061680873],[83.38817378141114,27.479384266673467],[83.61485154925539,27.469232901783197],[83.83871816006759,27.35928637000033],[83.85789113944374,27.376258066341112],[83.84812427161187,27.448799686127632],[84.01378204499908,27.438267946842195],[84.10796133351195,27.52160094745551],[84.2953417284998,27.382680935586315],[84.62013885029782,27.339265370968064],[84.69135340536583,27.21493348700977],[84.64840130139457,27.06405716740054],[84.65432251540919,27.045980976271853],[84.96215389452556,26.960551082798105],[85.0282983381775,26.857122270397184],[85.1905091433962,26.870181253773563],[85.20832928197396,26.777202310551843],[85.2194782108476,26.764514568778335],[85.63518249427746,26.87235335287831],[85.85051225323092,26.57535898575041],[85.86559251765975,26.57709718362174],[86.02728027992463,26.666247777104964],[86.3323238897088,26.619551380257136],[86.73119928961829,26.424738031985882],[87.07072838046746,26.586487661696875],[87.0963343464382,26.449646374226507],[87.33332173068368,26.350985032285408],[87.3493620975539,26.35456168526708],[87.4637174847462,26.440172866819825],[87.60716516081203,26.38247528501552],[87.8883945413758,26.48680668067011],[87.99898805344702,26.382843505006033],[88.0135470934767,26.37743188736829],[88.02993608610001,26.387287355535502],[88.10508316445518,26.550387814149754],[88.18613429381807,26.771450616276383],[88.13229737898733,26.98185121962685],[87.99172134633079,27.108348691970406],[88.0149451565653,27.212876342057022],[88.0442777380616,27.496470386758663],[88.19557957939269,27.78786699450805],[88.12908361686328,27.949450648995878],[88.39749048951712,27.978151934121982],[88.6100478952991,28.12888748548374],[88.83615513569583,28.015003437074988],[88.88799255049621,27.85711595096733],[88.76604908572473,27.5639550256452],[88.9133318933734,27.29018585712349],[88.77193194253596,27.16520248838316],[88.76708964551933,27.147041062447393],[88.77945202604772,27.132882786419255],[88.86603668369465,27.109168668177446],[88.86910633174462,26.99570536740199],[88.87553610950822,26.98154368812617],[88.89601310723077,26.977475232894093],[88.91728517202314,26.99805355032955],[89.12735755808934,26.80961952822323],[89.36968941396404,26.85724953339947],[89.63991831566229,26.77728736669827],[89.62686360320625,26.733885500843485],[89.64132836640509,26.714427652612944],[89.85081751993685,26.697335046588915],[90.19363368157654,26.77380739230956],[90.35670669524013,26.90099288402226],[90.71904706532905,26.768622042943914],[91.68685557100422,26.80678193085933],[91.85936883411274,26.913152220854037],[92.05568904526878,26.84945576238499],[92.10208838107171,26.883956342595084],[92.10804439241052,26.89799833785636],[92.02296761802377,27.114329563459233],[92.04050949787319,27.26564050243448],[92.10254909603704,27.283022853873224],[92.1115838335822,27.295751593185535],[92.10974226318417,27.309372556763957],[92.01583788663834,27.47790624082553],[91.64921568081245,27.484586242605847],[91.55991625992917,27.633414354423493],[91.63327017448091,27.751320454899968],[91.6357837364482,27.766360969420038],[91.54652158843075,27.85559498196341],[91.82638636848947,27.810244330266947],[91.91053630863001,27.725156883630174],[91.9243134089592,27.71922221358598],[92.21225216740517,27.85868615052636],[92.32002846546948,27.779233262393667],[92.56169222832708,27.82127681805654],[92.73578368406507,27.98606839058309],[92.73622435351592,28.001398243341637],[92.68888963350695,28.125431355462084],[93.2106421587414,28.331646076877625],[93.21509687785029,28.349447825893485],[93.18466459041221,28.439610169447533],[93.3391862746125,28.63990509840132],[93.92585170956573,28.67260093239375],[94.21710387897447,29.083816780280998],[94.55744772845657,29.22775746951023],[94.63083973199736,29.348436144993933],[94.802384056722,29.163889789575187],[95.44118555147057,29.03652702325399],[95.45585994667562,29.045292225629794],[95.60015765317317,29.26037810518958],[96.08207542465149,29.461698233591225],[96.24294139753823,29.237118817910353],[96.39329499491528,29.253742249567836],[96.12188721054689,29.077484574926892],[96.11920291047824,29.060415775729588],[96.16322890550168,28.918341918866926],[96.1875362317083,28.91282995674804],[96.52509299873061,29.07575066841542],[96.48215116687732,28.999090879133384],[96.48120413396754,28.985654923859553],[96.61502828600065,28.77405561861817],[96.28101251341697,28.42799905232064],[96.27540521837001,28.413758453468912],[96.28150794666193,28.399723029684985],[96.40066738501925,28.341633645689516],[96.66278593377957,28.460235209816418],[96.98832696674133,28.312469305759198],[97.09007501185172,28.36286118428391],[97.39729391156074,28.192389952256452],[97.3147922453336,28.077263982186885],[97.32412682486506,28.059103350160658],[97.41147044314673,28.015384049401547],[97.38507537780325,27.887424455918637],[97.2495520204756,27.897912961397967],[96.89108863278094,27.601120969021327],[96.9051044836877,27.451326050125324],[97.165658716048,27.135123908597173],[97.07090443679687,27.089856846235826],[96.87466912464829,27.180424503021946],[96.88281536339673,27.249367077465852],[96.87773969580087,27.263303930331208],[96.7060499997387,27.369254556631073],[96.52362130530013,27.286320478388607],[96.23082147333409,27.278455920501226],[95.4305748884676,26.70005126293258],[95.24286889194165,26.68325785575066],[95.22857365272239,26.675237266054243],[95.06796474588914,26.45233109543943],[95.0723117008982,26.439215574863493],[95.13217234698574,26.377731535393913],[95.11951387431488,26.10792866723613],[95.12912783598797,26.09666146893061],[95.18564383852672,26.073291565342092],[95.01472898183646,25.899011393715234],[95.04082386391313,25.74234189283045],[94.67350724459314,25.441095282037622],[94.58139931841903,25.221112995292852],[94.59197864334433,25.20523543311429],[94.74091732870195,25.12656167834443],[94.71358199976497,24.93501067276714],[94.39847822918125,24.482278516452684],[94.15662842685305,23.84819914551638],[93.93200054880893,23.948735865586517],[93.80777311326482,23.92678536124214],[93.76094902602856,23.995559683613877],[93.74879735359274,24.00245087181871],[93.50553724737132,23.942411247587664],[93.40517894214187,24.07601669833392],[93.3881243255949,24.077718027382716],[93.33446136018208,24.04999793819644],[93.33119581677022,24.032008302393347],[93.43614725315226,23.686731263035764],[93.38527539528569,23.134676240132706],[93.29361018227642,23.00668745134118],[93.14799964401232,23.03911180578164],[93.12735953569228,23.02756517412089],[93.10658593916676,22.528874509848993],[93.20201540740429,22.26413671996893],[93.15067870661777,22.17634185575798],[93.0556666037685,22.19228224955663],[93.03968259604021,22.185989870444963],[93.00337884509656,21.98256533885636],[92.96754299355797,22.014662865516925],[92.94896447445876,22.015798253296392],[92.9062101046816,21.941474521388738],[92.86083638144984,22.0628292724153],[92.70976757830525,22.147474308611297],[92.69087432715348,22.1388342543882],[92.6031806408583,21.97720386167399],[92.5290739747159,22.663727444576704],[92.37111686990158,22.93613010845303],[92.34635845652397,23.236651194722285],[92.38653661126918,23.241177863306802],[92.39719311638285,23.26259164231064],[92.2716601940081,23.691322229894823],[92.24675279713547,23.692400941131417],[92.21974093605876,23.651801474491112],[92.1347822749696,23.719761704664702],[92.11987244683723,23.722616562240738],[92.0594707276514,23.643186311345104],[91.98673967259539,23.71130926799867],[91.96143414926088,23.707917212186484],[91.94191005174682,23.427133741286298],[91.8499577340491,23.404064988690063],[91.76306106704276,23.28330889415961],[91.83514535909237,23.09331657576019],[91.77988117049703,23.028645556099676],[91.62030018517011,22.939345437777593],[91.55847883412294,22.977567849159513],[91.43542917625177,23.230327172776715],[91.42422376183721,23.24039092971231],[91.40745856746928,23.238901972769273],[91.39820212141484,23.22702094914747],[91.36974731176173,23.070652364982987],[91.32332012228767,23.361951789652963],[91.16038905195722,23.596103583006215],[91.23285592444283,23.919966744943977],[91.30039369217373,23.997355882886975],[91.35699417657499,23.98141271858984],[91.374384629327,23.988967777611325],[91.37616637878772,24.1058052329087],[91.61998756358503,24.102643834010408],[91.63168337938876,24.114495418449113],[91.66227796852884,24.23187958867486],[91.70058259448301,24.17790701001592],[91.71800717413201,24.171117149332456],[91.73424527728658,24.18346248069198],[91.74660130104509,24.245245427570897],[91.84116433265011,24.227297886410035],[91.88691745592004,24.162473444971507],[91.90140871905353,24.158167729943894],[91.91477344261997,24.16523314239444],[91.92246032118062,24.338391700528074],[92.10522582472689,24.383071436493864],[92.1557266670612,24.52561310883886],[92.19852297950457,24.510397506587964],[92.21784386772144,24.521711765032926],[92.2945216467918,24.735534601624888],[92.2336688688314,24.900597978273044],[92.45846717665995,24.877788321769746],[92.47719036355714,24.886684438403424],[92.47954082492716,24.903768114656568],[92.42416013975436,25.02859761470002],[92.06203405983254,25.18705347804617],[91.64201502545158,25.124364576369214],[91.26365817079447,25.20661684419504],[90.44456838307251,25.143841601504654],[89.83491074904995,25.296058901233533],[89.8542951789063,25.467446130313014],[89.81677967474499,25.81488828389031],[89.88322171648828,25.94674604105448],[89.71877746288693,26.16636100715146],[89.6556619603059,26.21286405923847],[89.63079412712234,26.206265282128474],[89.57747640948084,25.96785130358584],[89.42687143985243,26.04423058889724],[89.34914430562074,26.010439492836515],[89.1552180183767,26.13868422044688],[89.08976947687842,26.38869116459028],[89.08074399535967,26.400758048812293],[88.96150683546726,26.45625254131571],[88.947372154964,26.451630028584614],[88.91246162972182,26.411412819097002],[88.91708311334723,26.394672465222296],[89.05095181648399,26.24153623458215],[88.90404679539684,26.28602005665714],[88.8910997993581,26.281230646859964],[88.84270633465331,26.23084287990602],[88.80119169192743,26.297617344445683],[88.78562303009187,26.30543481897888],[88.66464679959215,26.258026109760532],[88.73081989550731,26.33281323055299],[88.72783121869966,26.35688688048824],[88.40202757914139,26.577969679291495],[88.37648129691303,26.575357407900384],[88.35518479339785,26.474397343428578],[88.35837124083353,26.45964160738776],[88.37480827341845,26.45092904480469],[88.48448366287906,26.46104800598757],[88.52205006787773,26.360720336859035],[88.17927310684534,26.14757541650461],[88.12107774193211,25.813438028576698],[88.13952120652345,25.801368984756927],[88.26141045469889,25.81365749162111],[88.53966951002914,25.510915490154026],[88.8112335690005,25.523349112107482],[88.84226735463307,25.363849530189142],[89.0080533760464,25.264554282015375],[88.92061007279125,25.16539715048004],[88.44859088465786,25.194875569610574],[88.43878493490074,25.18092360909282],[88.39783875414612,24.945623254859687],[88.32785165747104,24.871330968155],[88.227173905606,24.956706514407436],[88.15398832278063,24.93889739879314],[88.1468533765601,24.917873849249435],[88.1743662723536,24.86105050286621],[88.0351980520809,24.700566498113115],[88.0305972599513,24.684064388207062],[88.19173494218384,24.475858280823726],[88.73539801044873,24.276038358891746],[88.69598468668052,24.11223234183747],[88.76888348942478,23.982623309233144],[88.57790061919202,23.860563743064013],[88.55910884907428,23.656846918208657],[88.56831519193078,23.642257445834648],[88.79977216967612,23.49648712188253],[88.72617732464884,23.27748242605855],[88.73042498280992,23.257559314915436],[88.99436458260399,23.214138529439968],[88.85098096063743,23.008464353583882],[88.96947887310318,22.84399264500058],[88.92667244663406,22.6488741675499],[89.08042193773534,22.001791102195],[88.99493700058693,21.88378766956793],[89.027616955726,21.831560810061752],[89.00171102070487,21.80889212076567],[88.99914878078889,21.792252562578845],[89.014761969894,21.778115718024768],[89.07126021174037,21.61187817606394],[88.95614934286431,21.759662379037675],[88.96597511214298,21.773652265230172],[88.98271459185683,21.900043819500667],[88.96786983569368,21.921307043420757],[88.95240110340902,21.920392893080958],[88.94222822520017,21.908704013823883],[88.90739531802764,21.753557715443804],[88.911073777262,21.73460516359425],[88.85527038299765,21.850408653845452],[88.83832353980233,21.8584258532408],[88.82124758421888,21.84717679877592],[88.794924899334,21.771838398463316],[88.81187386700537,21.752865274972347],[88.83748450048743,21.766032724860054],[88.83844260729576,21.619181000258116],[88.82562582316687,21.657715882151457],[88.80905699120645,21.662689924728742],[88.78684830228775,21.651032490257002],[88.78062208462968,21.666193486082182],[88.69111898266688,21.75083401224168],[88.71592349401875,21.904471449307255],[88.78103162788783,21.868195825388355],[88.834155097438,21.860130313046252],[88.85230212377174,21.877548705443367],[88.81508016735597,21.94267549390024],[88.76349769793377,21.95518104128252],[88.76373097540787,21.980747027054655],[88.72661210435508,22.004493261396302],[88.63330348672125,21.954851951634634],[88.60892237122243,21.95523981414006],[88.59355151925617,21.895602245753963],[88.49615752170519,21.878123486653017],[88.48559243701591,21.864549938346222],[88.48965423958147,21.847566273088848],[88.38174802764668,21.795137620963153],[88.36539040766225,21.805416304267506],[88.26675525567533,21.799399136023997],[88.26083720638141,21.785271035267478],[88.25997209835418,21.556652522506617],[88.14574376883486,21.955202571446062],[88.17189118985084,22.044764306382046],[88.16727588208778,22.059456855843447],[88.15161311797358,22.06657562077568],[88.05463707121118,22.01421602787651],[87.98661407478878,21.87068935661573],[87.80637828409952,21.708877423403376],[87.14638983765649,21.507477579379508],[86.94530816418762,21.352515859441915],[86.84277406835199,21.158549788111287],[86.97166201308453,20.79437601359018],[86.9720228706371,20.775772537343727],[86.98735070163762,20.765197390227762],[87.02211638880742,20.77032119672479],[87.05561957939896,20.715049884997395],[86.75367004754585,20.517992854282866],[86.71663976422886,20.409173280207177],[86.7312852581873,20.392804351475895],[86.76845186635498,20.386979489344753],[86.78217334353677,20.392994498747445],[86.79670013500741,20.49228778734869],[86.78311349682933,20.33001470853615],[86.52498031328216,20.173728774003756],[86.40871376136651,19.97079983646193],[85.37146071341098,19.598215874991133],[84.76479203886285,19.077228332103267],[84.1284835353829,18.313413524037],[83.56885555840518,18.009591634890715],[83.21291077191944,17.591025184662502],[82.59397349069076,17.281343832068988],[82.32242328193588,17.059783050787853],[82.24821695011153,16.925218300215164],[82.24861561235589,16.88812988015949],[82.25676339680724,16.875581840498008],[82.34116034764412,16.85686849364019],[82.35584722283247,16.873281956193615],[82.36019356197801,16.95866351801878],[82.3659230321411,16.706843738311278],[82.31363383353049,16.558824309209076],[81.7207741040734,16.306958475849058],[81.48816241566504,16.3548578426823],[81.30768650362216,16.303791952679976],[80.93932687055228,15.71679488277134],[80.82151626086491,15.709752513981677],[80.80352581564658,15.839378157307413],[80.68068841889765,15.884083916913877],[80.28973646126988,15.692793525307188],[80.04815519552436,15.079593909745611],[80.19597419572057,14.586545896542896],[80.12776571838835,14.148242699144706],[80.268104576227,13.565144848016175],[80.34675398237974,13.313376759242697],[80.25478454675168,12.781472654676817],[80.1378128291591,12.411065384254039],[79.87487542587351,12.044133127583514],[79.85759201036471,12.007932031058763],[79.79590285734352,11.786106282970225],[79.75821045944039,11.563194641752212],[79.8430713667864,11.351161146567293],[79.85434326379502,10.98388961236367],[79.84138565741421,10.826507983645648],[79.87642355177752,10.29537859799213],[79.39313455297619,10.317079338895057],[79.29801053044835,10.262633521627977],[79.23040902767033,10.148135636236558],[79.2659857119001,10.039309621353457],[78.90504456736693,9.498796746053246],[78.90852514270263,9.47803993845278],[79.0640836934326,9.301942346491183],[79.32939454069472,9.320195974405507],[79.43278116854934,9.160993003150127],[79.20947731280272,9.280727868826203],[78.96718088913161,9.274124582195398],[78.40704949584773,9.109514112211572],[78.19251109130873,8.927472125781122],[78.2019476373144,8.756029349829246],[78.06708548987791,8.374539644177416],[77.75795752709946,8.145327979994686],[77.60931312943795,8.146284969751907],[77.5550267544316,8.076603701297362],[77.31553332778029,8.122127290548532],[77.09814680581427,8.292215803950464],[76.54246999288605,8.91344601035363],[76.3401027999005,9.410293849794504],[76.1004017548491,10.381738072796491],[75.53711240437897,11.692715780228088],[75.20126767685312,12.00636984293814],[74.8697521947969,12.76025941586279],[74.61000600471976,13.86688849355405],[74.2663696226199,14.711226402552223],[74.25502714644644,14.722352017865987],[74.1190863390784,14.774676946345865],[74.08463601705083,14.901190232163023],[73.91229848367905,15.085244158945116],[73.87903598122531,15.358393887170406],[73.78306394335696,15.411502772989223],[73.82660643713167,15.420352072466525],[73.83550108089005,15.432543189227419],[73.83424071978153,15.445765986506089],[73.82320311986958,15.456057215958865],[73.7879271553778,15.462520780005828],[73.6753052990471,15.726980681251876],[73.45722814806913,16.053812957861922],[73.44856638113833,16.30237138260168],[73.43958334315548,16.31312835379004],[73.38539657395644,16.337127964223658],[73.3837560011493,16.354315579135775],[73.36827578000754,16.363958928085605],[73.37440929404225,16.386857617284242],[73.31584920517484,16.51285481503447],[73.28960606136381,17.112448233929808],[73.1898189283196,17.298764344042343],[73.23205122547836,17.317481515455754],[73.23863903847786,17.337434852643376],[72.93204697140779,18.219211762532318],[72.97416058969876,18.298485281280822],[72.96804192852453,18.312187930522065],[72.91442244073959,18.354826939575386],[72.93309448120795,18.541308871364894],[72.792611774273,18.93956944246375],[72.83709865612599,19.05270066732889],[72.71587920279573,19.592222827846143],[72.76483685588384,19.597036190847817],[72.77560314271219,19.61948107179371],[72.65463437001415,19.836284716206478],[72.68997475903606,19.958593393210467],[72.7422488890572,19.9243313981853],[72.75731232402758,19.925603475421482],[72.76718259620792,19.9370534964122],[72.73751017258485,20.134818471406202],[72.85540961824394,20.467073615674177],[72.90242527494253,20.578927829093193],[72.83946241082432,20.804196582969563],[72.75628543469342,21.04610439459594],[72.62385272097492,21.091273504831694],[72.59758274061899,21.305428012276828],[72.7271020184294,21.529352249652465],[72.71590682869993,21.546395062250678],[72.61230651150122,21.58520836341924],[72.7230184760467,21.62654658690299],[72.73369341560716,21.649256012394403],[72.7176361717035,21.66424015140554],[72.52782372619279,21.678184151937725],[72.63319231559296,21.89572292332378],[72.62563774260786,21.909030519797156],[72.60895405568174,21.912766079125117],[72.55824988648557,21.878919120002426],[72.50794844725102,21.934218541804718],[72.58043552488303,22.197395925134497],[72.75575992291347,22.175433503245074],[72.80620744509842,22.21271581055324],[72.80808965578393,22.236139001241288],[72.79022403854806,22.24570812694121],[72.75582056125086,22.231741241392516],[72.52180768172593,22.31724795764359],[72.50801806673505,22.311142550712184],[72.42726072891698,22.209556458193145],[72.38665761145492,22.28760119663253],[72.37077140610141,22.293729616436003],[72.35592134784032,22.285398660940785],[72.22556220947298,22.057268520564925],[72.24148490473715,21.823686353527687],[72.1906068125824,21.81279585951899],[72.17846012632835,21.796398406155443],[72.18276067358383,21.78183633685434],[72.30860474640336,21.625064915195345],[72.11237166739504,21.198759081032577],[71.00787865811162,20.73755991878093],[70.87652440909103,20.709224973271187],[70.85990875660814,20.71145124620643],[70.82158196496599,20.692258798154477],[70.25731932979443,20.973621856972454],[68.93674624781696,22.305326805173422],[69.0681181927177,22.481085537866402],[69.04657361592868,22.41932044669485],[69.05847706213636,22.39813267262496],[69.19476988566105,22.421692887706488],[69.1646326528226,22.24255865517531],[69.17102391026023,22.226499791496643],[69.18556875937217,22.221222905436573],[69.332791896746,22.327624819993268],[69.65141295562871,22.35995089639973],[69.73074306632844,22.48432478007801],[69.74331354504825,22.470455423623388],[69.76459055314675,22.475295542527938],[69.868769237803,22.432145249313717],[69.9755455607798,22.54264624129974],[70.1233661954748,22.55420125249087],[70.37609400444954,22.908291472103812],[70.38118102586125,22.825253106821627],[70.38897467868189,22.812341106300316],[70.40912897613252,22.8101242946439],[70.46234020062307,22.841453292352078],[70.50779028091328,22.91602188610681],[70.50918819690563,22.92935003851697],[70.49854003185608,22.942615447144842],[70.43250757468999,22.96740662212727],[70.53171692780212,22.96070230800161],[70.54538668744661,22.96661718234683],[70.69192626716067,23.18495567242657],[70.68847006185575,23.208515846337303],[70.6743521858862,23.21440323852618],[70.31286712128365,23.21394058901848],[70.05174228343398,22.967830175801875],[70.04974096692281,22.944371370859695],[70.0802231412248,22.919837364779436],[69.6824469022302,22.799818416005387],[69.4793345534049,22.808714915196642],[69.4644107718441,22.792671806607256],[69.47172363008951,22.773604068624508],[69.19588999593265,22.83785347397979],[68.75948638831233,23.0796072410156],[68.5838967735568,23.223657792514945],[68.59302761081031,23.241888373469877],[68.58562271280218,23.259284911330386],[68.56893665167838,23.263243988955455],[68.54017966224575,23.248342534236865],[68.57471894989688,23.352670083957417],[68.56876263751184,23.371854211461887],[68.39980781431053,23.420114703090267],[68.44983320321631,23.4814801392639],[68.44595177958162,23.505380950995516],[68.43136637988331,23.510862219170765],[68.32638390782142,23.496118397250328],[68.29461288464297,23.593976311545244],[68.09385227206845,23.666810990035643]],[[88.90239398439105,21.939869859113177],[88.9125461576787,21.919713547405546],[88.93675232708749,21.92285297408456],[88.95026025585035,21.96317423266016],[88.94555976001088,21.97960974896586],[88.9298758786821,21.986409508067215],[88.91252000239366,21.979475208230625],[88.90239398439105,21.939869859113177]],[[88.72599325238289,22.028946916850316],[88.74338666990676,22.02154585259483],[88.75917623244214,22.03193798616856],[88.77127600937719,22.072790295405635],[88.76047542584054,22.09057381174393],[88.74502779853334,22.09181406177839],[88.70782830064948,22.070649003997225],[88.70705530051993,22.053868531903696],[88.72599325238289,22.028946916850316]],[[88.61899345819133,22.053490605052573],[88.62249952396792,22.038637989251452],[88.6354608388695,22.03058212124189],[88.64868305143779,22.032958803179245],[88.65802759768086,22.045024131557557],[88.6999990698951,22.199608873435608],[88.69506481255084,22.21421218618132],[88.66997998533208,22.23191734993693],[88.65480300374415,22.229867612717516],[88.64552554138177,22.217682749775985],[88.61899345819133,22.053490605052573]],[[88.41081806403824,21.929395636535972],[88.41102485361625,21.908362090417747],[88.43862192314799,21.886745044008386],[88.45206882827141,21.88398359964628],[88.46537477045769,21.89210714290632],[88.46835379782824,21.90926335022403],[88.45090881327694,21.954260628266674],[88.42900861842813,21.955051139626804],[88.41081806403824,21.929395636535972]],[[88.31926070821181,21.87618153627881],[88.34734691040475,21.844783680304456],[88.36767382477619,21.85672498264639],[88.3637864081542,21.89766915541394],[88.35273328819022,21.91056784599898],[88.33753957591871,21.911082253918703],[88.32637353253068,21.9007656176862],[88.31926070821181,21.87618153627881]],[[88.30431651292578,21.839855721347124],[88.31134351827015,21.858676773748726],[88.29817151351119,21.887174288609124],[88.28555815853501,21.896145632278195],[88.27031999548188,21.893428995064667],[88.26128191608977,21.878688778009515],[88.2644051008645,21.83557962690377],[88.28300645035799,21.82674010799418],[88.30431651292578,21.839855721347124]],[[88.04584810721018,22.198209738836145],[88.06663067707419,22.20923507031942],[88.07050884145137,22.244173149366794],[88.05392154535303,22.252680427861876],[88.01462577890278,22.246225470747124],[88.0058813298167,22.231857732285402],[88.01225254235531,22.210115567989508],[88.04584810721018,22.198209738836145]],[[73.07707759005777,18.320841154109996],[73.06374632700954,18.310066036741997],[73.06365546055099,18.29292493199225],[73.08085180224852,18.279042484215],[73.09607677940484,18.279706066507156],[73.10641444392093,18.290903073393892],[73.10666205251754,18.31137459482894],[73.09540757283557,18.321787243496978],[73.07707759005777,18.320841154109996]],[[73.04610003016052,18.272543065072426],[73.01216549238484,18.254844436783202],[73.011632792623,18.23462456897908],[73.04689172824651,18.199287023771305],[73.06771106631768,18.198643067727758],[73.07781212315116,18.216859219021472],[73.06209752631163,18.262779897027883],[73.04610003016052,18.272543065072426]]],[[[92.51435882301425,11.848437860288232],[92.56152710666642,11.946904159395354],[92.59273873647506,11.881420693890737],[92.61066603851516,11.87636500740547],[92.62498537693999,11.888277382120437],[92.69602433217227,12.238979629275935],[92.70105233168415,12.1722828976379],[92.71072133361105,12.158383094361579],[92.7310872944561,12.158551870227106],[92.77102759935235,12.191369613004186],[92.77089996533391,12.234396482970967],[92.74095157108637,12.245573961004554],[92.77074346531307,12.27518178225585],[92.77200607524678,12.295719145301018],[92.75644176396996,12.306383111306797],[92.71920735471151,12.300306671309439],[92.6838116672153,12.60869966343412],[92.74000364763886,12.65512530781296],[92.73178639186473,12.675488564179707],[92.72202053261005,12.825996992623555],[92.75912103147502,12.791073237080028],[92.77414088526896,12.792093209718525],[92.78419437758924,12.803298728195651],[92.78988417026716,12.88949548064799],[92.79925584244565,12.906019088858221],[92.78962044618925,12.961868634705558],[92.81376334612477,12.998900901557795],[92.80710971225966,13.014973443034755],[92.78781900540297,13.020139139067679],[92.83099688698394,13.242964452853581],[92.84769226546355,13.24675774901004],[92.85523216082174,13.260410261289564],[92.84188854253021,13.403081560227704],[92.8817521450593,13.394535263941309],[92.89594659646838,13.399927099796022],[92.90106859953754,13.42138029543612],[92.87063757771016,13.472422229883675],[93.02973835782157,13.568404088853868],[92.99347084463547,13.435395039790174],[93.00402200428566,13.421739942770277],[93.06733925834084,13.397218063079999],[92.9799589270191,13.364241454519972],[92.96883049037842,13.346557147402137],[92.97619913439972,13.33080842435715],[93.06438645811973,13.272436197253802],[93.03327585895545,13.08189115284794],[92.95932437889483,13.015811366303558],[92.95438236509952,13.04889868898344],[92.9444657773079,13.060277609658522],[92.92178758666732,13.057031908472357],[92.90527166042699,13.064930497624577],[92.87600165159782,13.056917377576221],[92.86792275833854,13.04415454054979],[92.87107334772743,13.029381852515417],[92.93672597479949,12.974853759286168],[92.86774284730052,12.961144885491873],[92.85526972698953,12.942879571240168],[92.86785142103909,12.920113774843903],[92.88309940438266,12.917034233611512],[92.89659706275782,12.926887933695719],[92.90096162990629,12.911424924805873],[92.96838769550436,12.49657181779908],[92.91042385802736,12.406222607660775],[92.87005273156552,12.429704661178251],[92.84874976104157,12.41862386809019],[92.8496626756475,12.39963391909024],[92.89867658244427,12.333931894285032],[92.8332541037644,12.321264059667422],[92.82100898839559,12.29912839420365],[92.88390007551281,12.198308847580078],[92.86549875092753,12.202726900224773],[92.85060635894882,12.194211508214035],[92.84708693545275,12.181159276254768],[92.85496651923945,12.158835008503276],[92.7757584314357,12.076321272413649],[92.77318441288264,12.060868485288076],[92.78216793604615,12.048418456775034],[92.740479423198,12.045346918066599],[92.72621870943073,12.031156086271316],[92.72217926754305,11.943424993229932],[92.74531210088361,11.93230260268404],[92.79105216851804,11.88598408228024],[92.75422967129947,11.701923535922106],[92.74305362602573,11.687504627820541],[92.75534120477275,11.664658676476934],[92.7101137622381,11.478289208980794],[92.51435882301425,11.848437860288232]],[[92.75481060579074,12.703105417233798],[92.75064631711234,12.686699299188703],[92.75890617700368,12.674001827631376],[92.77473654779789,12.670842214880102],[92.78749174827456,12.678773374973114],[92.79112959377855,12.693346107033717],[92.783352924947,12.707259359057483],[92.76884979974857,12.711315979111896],[92.75481060579074,12.703105417233798]],[[92.71676291108191,11.637561270280852],[92.72485458295067,11.657976735899947],[92.70933210902199,11.673511187715498],[92.67363812442258,11.660092206497195],[92.66461048165336,11.645998124052026],[92.66914288848355,11.628045060570193],[92.6820264972463,11.620144239094962],[92.71676291108191,11.637561270280852]]],[[[93.64516728820456,7.127083307498696],[93.83718620770124,7.2402055387835835],[93.94284477430233,6.998905808597419],[93.82385592847577,6.754417566763679],[93.64516728820456,7.127083307498696]]],[[[92.37830161864224,10.782574168329337],[92.5206213789328,10.897800610416427],[92.58646163669825,10.787776748862033],[92.56847976252402,10.578442180532948],[92.51305588876953,10.51402828069848],[92.38853682633291,10.533076854953814],[92.37830161864224,10.782574168329337]]],[[[72.29256164993411,21.967474799976678],[72.36233567902083,22.029117808909316],[72.44455342360777,21.96339160138663],[72.3535405796744,21.79733176040553],[72.29256164993411,21.967474799976678]]],[[[93.44495072360908,8.16768125856862],[93.51190225204738,8.235006498300237],[93.53798181080582,8.024690064001918],[93.56738350359916,7.931539612767322],[93.49094705080344,7.999617899542207],[93.50333978893013,8.041083844563325],[93.49206729561872,8.053783478293457],[93.47546952743639,8.05342769394312],[93.44495072360908,8.16768125856862]]],[[[93.62066594609536,7.373244560803518],[93.6979415312418,7.386730919502522],[93.7047915120698,7.400247977900956],[93.70000556562034,7.445617960183995],[93.74306452027064,7.362375609520888],[93.63604865689464,7.244499353641999],[93.62066594609536,7.373244560803518]]],[[[92.72030987211494,9.218542551290499],[92.79240602215731,9.23869179007389],[92.82630273751528,9.140133367763084],[92.72808185672339,9.126720923316647],[92.72030987211494,9.218542551290499]]],[[[93.31057772074527,7.93254574383997],[93.37134739933418,8.021897248467484],[93.45093691349201,7.87387471525549],[93.31057772074527,7.93254574383997]]],[[[88.12066433738246,21.62384901116928],[88.03372164285075,21.663375389804013],[88.09152723509614,21.785297889059613],[88.1258136493051,21.673613491405238],[88.12066433738246,21.62384901116928]]],[[[92.69028531497419,11.375213459612365],[92.5984009031345,11.347302392308597],[92.63895121620195,11.51043600697339],[92.69028531497419,11.375213459612365]]],[[[93.07711836927521,8.273818658909038],[93.11676255015442,8.35659314025413],[93.19040893922954,8.197360936130291],[93.07711836927521,8.273818658909038]]],[[[92.92547868284615,11.99528728682349],[92.96638683163009,12.04121954549404],[93.04350948751211,11.884716166034643],[92.92547868284615,11.99528728682349]]],[[[88.50780572839936,21.747192383901513],[88.54373334018844,21.811125658232655],[88.55531870250857,21.76148329442254],[88.59663336307348,21.657681774582507],[88.50780572839936,21.747192383901513]]],[[[88.77321482864012,21.63249585839648],[88.79307648432929,21.582690962703584],[88.71220318273934,21.578531679131018],[88.77321482864012,21.63249585839648]]],[[[88.52141824908432,21.651516912055325],[88.5845426374014,21.6015236628433],[88.54903093087648,21.564886453469256],[88.54887178486831,21.565312270866887],[88.52141824908432,21.651516912055325]]]]}}]}